TDRS 3                  
1 19548U 88091B   20232.35971122 -.00000302  00000-0  00000-0 0  9998
2 19548  14.1426 356.8557 0032919 322.1326  89.8213  1.00273421104072
FLTSATCOM 8 (USA 46)    
1 20253U 89077A   20232.40535240 -.00000083  00000-0  00000+0 0  9996
2 20253  13.0185   5.0165 0003848 115.0691  65.9587  1.00272184239273
SKYNET 4C               
1 20776U 90079A   20232.01299198  .00000123  00000-0  00000-0 0  9991
2 20776  13.9560   5.3700 0002437 164.8837 195.6149  1.00274265109570
TDRS 5                  
1 21639U 91054B   20232.24864382  .00000080  00000-0  00000+0 0  9993
2 21639  14.3123  10.1511 0025716  15.7664 223.8076  1.00274976106377
TDRS 6                  
1 22314U 93003B   20232.42901257 -.00000298  00000-0  00000-0 0  9996
2 22314  14.0494  13.2994 0007508  86.3897 337.2233  1.00273661101118
UFO 2 (USA 95)          
1 22787U 93056A   20232.04910584  .00000122  00000-0  00000-0 0  9994
2 22787  11.3000  14.9452 0004585 149.3839 209.8927  1.00273931 97242
USA 99 (MILSTAR-1 1)    
1 22988U 94009A   20232.42163020 -.00000202  00000-0  00000-0 0  9993
2 22988  14.2498  50.3485 0001508  82.5311 257.2170  1.00273851 11629
ASTRA 1D                
1 23331U 94070A   20232.43045348 -.00000275  00000-0  00000-0 0  9997
2 23331   9.1902  41.8164 0003476 106.1172 262.2769  1.00271159 94954
USA 107 (DSP 17)        
1 23435U 94084A   20232.43140454 -.00000169  00000-0  00000-0 0  9993
2 23435  14.5613  11.3556 0001933  95.6154 279.8740  1.00276658 11628
UFO 4 (USA 108)         
1 23467U 95003A   20232.24954774 -.00000026  00000-0  00000-0 0  9999
2 23467   9.8449  20.6154 0005685  98.9804 110.6911  1.00277001 93636
AMSC 1                  
1 23553U 95019A   20232.51303588 -.00000104  00000-0  00000-0 0  9990
2 23553  11.3221  30.7405 0005377  55.3305 320.4380  1.00272557 92844
TDRS 7                  
1 23613U 95035B   20232.38217431 -.00000205  00000-0  00000-0 0  9993
2 23613  14.1830   3.9870 0027924  38.8647 147.7169  1.00275666 91919
USA 113                 
1 23628U 95038A   20232.38594708 -.00000344  00000-0  00000+0 0  9990
2 23628  11.4913  29.5936 0001305  90.0048  91.1750  1.00275798 10278
USA 115 (MILSTAR-1 2)   
1 23712U 95060A   20232.50258498 -.00000022  00000-0  00000-0 0  9990
2 23712  13.2388  19.4181 0001689 135.8892 233.8339  1.00271057 11585
INMARSAT 3-F1           
1 23839U 96020A   20232.43440052 -.00000101  00000-0  00000-0 0  9996
2 23839   6.1939  61.9763 0006733  77.6125 246.2279  0.99979735 88976
ASTRA 1F                
1 23842U 96021A   20232.36438212  .00000128  00000-0  00000+0 0  9995
2 23842   0.0408 345.1600 0002512 170.9077 347.6135  1.00275710 88999
MSAT M1                 
1 23846U 96022A   20232.51189171 -.00000095  00000-0  00000-0 0  9999
2 23846   9.3662  41.1595 0004762  78.5395 285.4022  1.00272723 89084
INMARSAT 3-F2           
1 24307U 96053A   20232.46515729 -.00000321  00000-0  00000-0 0  9994
2 24307   5.0382  71.5216 0007013  46.2447 159.1441  1.00003118 87640
AMC-1 (GE-1)            
1 24315U 96054A   20232.58994802  .00000055  00000-0  00000-0 0  9993
2 24315   4.0729  78.3040 0002992  71.8915 259.6692  1.00272352 24988
INMARSAT 3-F3           
1 24674U 96070A   20232.55833497  .00000025  00000-0  00000-0 0  9995
2 24674   5.7305  65.8721 0005290  81.4841 200.1267  1.00274735 86636
AMC-2 (GE-2)            
1 24713U 97002A   20232.42455941 -.00000222  00000-0  00000-0 0  9995
2 24713   6.4884  60.0327 0005431  84.8600 251.3399  1.00270938 86248
INTELSAT 26 (IS-26)     
1 24732U 97007A   20232.09071917 -.00000002  00000-0  00000+0 0  9996
2 24732   9.1250  42.6059 0002735  73.3627 308.2259  1.00271581 85948
USA 130 (DSP 18)        
1 24737U 97008A   20232.16747375  .00000022  00000-0  00000-0 0  9990
2 24737  13.5986  19.2381 0001163 307.3703  69.3305  1.00270747 11595
GALAXY 25 (G-25)        
1 24812U 97026A   20232.22820295  .00000144  00000-0  00000-0 0  9999
2 24812   2.0676  89.9379 0002423  74.6673 278.4364  1.00271670 85033
INTELSAT 5 (IS-5)       
1 24916U 97046A   20232.58616433  .00000080  00000-0  00000-0 0  9991
2 24916   5.8346  65.2107 0003316  71.8332 265.3548  1.00272098 84282
AMC-3 (GE-3)            
1 24936U 97050A   20232.31294427 -.00000270  00000-0  00000-0 0  9996
2 24936   2.9447  85.2644 0002943  82.1654 201.3337  1.00269557 31092
NSS-5                   
1 24957U 97053A   20232.15998448  .00000096  00000-0  00000-0 0  9993
2 24957   6.0881  63.4277 0002892  74.7133 297.9059  1.00272177 83837
USA 134                 
1 25019U 97065A   20232.50871604 -.00000066  00000-0  00000-0 0  9997
2 25019  10.2888  35.6636 0002764 332.1462  31.4107  1.00273899 11620
ASTRA 1G                
1 25071U 97076A   20232.15202765  .00000009  00000-0  00000+0 0  9999
2 25071   4.7496  72.8485 0003416  70.8579 302.2093  1.00271447 83209
INMARSAT 3-F5           
1 25153U 98006B   20232.49804524 -.00000299  00000-0  00000-0 0  9995
2 25153   4.9422  69.9099 0004629  90.4326 293.2872  1.00270551 82561
UFO 8 (USA 138)         
1 25258U 98016A   20232.32960326 -.00000032  00000-0  00000+0 0  9991
2 25258   8.7286  32.5183 0003238  99.7706 126.0685  1.00270607 82237
ASTRA 2A                
1 25462U 98050A   20232.37549623  .00000138  00000-0  00000+0 0  9990
2 25462   1.7703  92.5789 0002914  58.2035 340.5330  1.00273723 80403
JCSAT-4A                
1 25630U 99006A   20232.53590563 -.00000319  00000-0  00000-0 0  9999
2 25630   4.7347  73.6097 0005519 163.9463  59.7329  1.00270101 29274
SKYNET 4E               
1 25639U 99009B   20232.21771966 -.00000038  00000-0  00000+0 0  9991
2 25639  10.9072  20.6646 0002751 124.2200 260.3307  1.00271118 78687
ASIASAT 3S              
1 25657U 99013A   20232.65109256 -.00000236  00000-0  00000+0 0  9991
2 25657   4.9217  72.0770 0002998  53.4041 224.8691  1.00270783 78485
NIMIQ 1                 
1 25740U 99027A   20232.36416630 -.00000209  00000-0  00000-0 0  9995
2 25740   1.2405  93.7253 0005506  59.9773 219.0306  1.00269916 77714
ABS-7                   
1 25894U 99046A   20232.53198001 -.00000373  00000-0  00000-0 0  9996
2 25894   1.1192  94.4315 0002908  53.3653 128.1466  1.00274090 75793
ABS-6                   
1 25924U 99053A   20232.54052913 -.00000131  00000-0  00000-0 0  9992
2 25924   0.0705 291.7663 0002928 206.3753 183.7529  1.00272308 76536
TELSTAR 12 (ORION 2)    
1 25949U 99059A   20232.51090791 -.00000074  00000-0  00000-0 0  9994
2 25949   3.4527  83.3401 0004485  56.8491 262.8337  1.00270780 76194
AMC-4 (GE-4)            
1 25954U 99060A   20232.58731896  .00000077  00000-0  00000-0 0  9999
2 25954   0.1165 279.5207 0002387 231.3729 254.0270  1.00272982 22217
UFO 10 (USA 146)        
1 25967U 99063A   20232.28313293 -.00000194  00000-0  00000-0 0  9991
2 25967   7.9326  35.4522 0005648  90.0584 281.6010  1.00266754 76011
GALAXY 11 (G-11)        
1 26038U 99071A   20232.36055657 -.00000173  00000-0  00000-0 0  9993
2 26038   1.3645  95.4961 0000647 335.0118 294.3569  1.00271627 75749
USA 148                 
1 26052U 00001A   20232.27618896  .00000033  00000-0  00000-0 0  9998
2 26052   8.5037  46.2589 0002247  51.4600 149.9143  1.00272684 11626
ASIASTAR                
1 26107U 00016A   20232.52979911 -.00000344  00000-0  00000-0 0  9997
2 26107   4.1492  76.7522 0003954  71.4448 115.8707  1.00271117 74590
USA 149 (DSP 20)        
1 26356U 00024A   20232.56295017  .00000092  00000-0  00000-0 0  9993
2 26356  11.5888  25.9814 0001525 277.5634  62.3100  1.00259333 11573
EUTELSAT 80A            
1 26369U 00028A   20232.16000934  .00000111  00000-0  00000-0 0  9991
2 26369   3.5300  80.7150 0004473  68.9863 284.0854  1.00271870 74095
TDRS 8                  
1 26388U 00034A   20232.52648416 -.00000238  00000-0  00000-0 0  9993
2 26388   9.3259  47.1018 0014028 329.8723 229.9691  1.00265920 73842
INTELSAT 9 (IS-9)       
1 26451U 00043A   20232.42703520 -.00000296  00000-0  00000-0 0  9995
2 26451   5.8219  65.4125 0001916  79.1355 287.4299  1.00272576 22819
BRASILSAT B4            
1 26469U 00046A   20232.05975042 -.00000180  00000-0  00000-0 0  9998
2 26469   4.1195  78.0526 0002847  73.9199 105.3673  1.00269133 73624
ASTRA 2B                
1 26494U 00054A   20232.29720654  .00000108  00000-0  00000-0 0  9997
2 26494   4.6498  73.4666 0004665  70.4451 310.7914  1.00274130 25552
NSS-11 (AAP-1)          
1 26554U 00059A   20232.58903559  .00000014  00000-0  00000-0 0  9994
2 26554   0.0679 287.7468 0002116 210.6055 218.0845  1.00270307 19960
USA 153                 
1 26575U 00065A   20232.39214083 -.00000329  00000-0  00000+0 0  9999
2 26575   7.9945  49.5352 0000876  26.8103 167.8908  1.00272722 10272
AMC-6 (GE-6)            
1 26580U 00067A   20232.49085855  .00000100  00000-0  00000-0 0  9998
2 26580   0.0130  77.1782 0002090 156.6696 135.8550  0.99977852 72595
INTELSAT 12 (IS-12)     
1 26590U 00068A   20232.52168618  .00000001  00000-0  00000-0 0  9993
2 26590   3.0740  85.7011 0003297  66.3343  68.3414  1.00272196 30384
INTELSAT 1R (IS-1R)     
1 26608U 00072A   20232.54018019 -.00000149  00000-0  00000-0 0  9993
2 26608   2.8656  86.1699 0000278 353.2395 240.4887  1.00272032 19984
ANIK F1                 
1 26624U 00076A   20232.23693953 -.00000084  00000-0  00000+0 0  9994
2 26624   0.0372 249.0109 0002265 267.3861 149.6474  1.00266632 72388
ASTRA 2D                
1 26638U 00081A   20232.16129301  .00000054  00000-0  00000+0 0  9994
2 26638   5.9142  64.3585 0001621  74.3669 304.5286  1.00270449 72053
AMC-8 (GE-8)            
1 26639U 00081B   20232.49073392  .00000077  00000-0  00000-0 0  9995
2 26639   0.8066  95.2834 0002712  54.7794 219.8881  1.00271336 71993
USA 157 (MILSTAR-2 2)   
1 26715U 01009A   20232.34563611 -.00000314  00000-0  00000+0 0  9997
2 26715   9.3844  30.2329 0002000 107.7520  92.3501  1.00274743 10306
